CCSDS_OMM_VERS,COMMENT,CREATION_DATE,ORIGINATOR,OBJECT_NAME,OBJECT_ID,CENTER_NAME,REF_FRAME,TIME_SYSTEM,MEAN_ELEMENT_THEORY,EPOCH,MEAN_MOTION,ECCENTRICITY,INCLINATION,RA_OF_ASC_NODE,ARG_OF_PERICENTER,MEAN_ANOMALY,EPHEMERIS_TYPE,CLASSIFICATION_TYPE,NORAD_CAT_ID,ELEMENT_SET_NO,REV_AT_EPOCH,BSTAR,MEAN_MOTION_DOT,MEAN_MOTION_DDOT,SEMIMAJOR_AXIS,PERIOD,APOAPSIS,PERIAPSIS,OBJECT_TYPE,RCS_SIZE,COUNTRY_CODE,LAUNCH_DATE,SITE,DECAY_DATE,FILE,GP_ID,TLE_LINE0,TLE_LINE1,TLE_LINE2,,,,,,,AVG_ALTITUDE,,AVG_VELOCITY
2,GENERATED VIA SPACE-TRACK.ORG API,2022-06-03T06:26:12,18 SPCS,P2-10,2021-006BY,EARTH,TEME,UTC,SGP4,2022-06-03T02:53:44.414880,15.16633021,0.0007669,97.4395,213.4584,340.5413,19.5526,0,U,47483,999,7510,0.00033282,6.45E-05,0,6894.162,94.947,521.314,510.74,PAYLOAD,SMALL,US,1/24/2021,AFETR,,3478064,205215955,2/10/2022 12:00,1 47483U 21006BY  22154.12065295  .00006447  00000-0  33282-3 0  9991,2 47483  97.4395 213.4584 0007669 340.5413  19.5526 15.16633021 75109,,,,,,,524.162,,7.603756092
2,GENERATED VIA SPACE-TRACK.ORG API,2022-06-02T17:55:29,18 SPCS,ARCE-1C,2021-006BZ,EARTH,TEME,UTC,SGP4,2022-06-02T11:13:32.181312,15.16796863,0.0007612,97.4398,212.8065,343.8702,16.2288,0,U,47484,999,7500,0.00032565,6.34E-05,0,6893.666,94.937,520.778,510.283,PAYLOAD,SMALL,US,1/24/2021,AFETR,,3477482,205175698,0 ARCE-1C,1 47484U 21006BZ  22153.46773358  .00006336  00000-0  32565-3 0  9994,2 47484  97.4398 212.8065 0007612 343.8702  16.2288 15.16796863 75007,,,,,,,523.666,,7.604029633
2,GENERATED VIA SPACE-TRACK.ORG API,2022-06-03T07:06:16,18 SPCS,QPS-SAR-2 IZANAMI,2021-006CA,EARTH,TEME,UTC,SGP4,2022-06-03T02:10:09.168960,15.15949013,0.0008103,97.4422,213.3824,340.5625,108.6694,0,U,47485,999,7508,0.0004214,8.03E-05,0,6896.236,94.99,523.689,512.513,PAYLOAD,LARGE,JPN,1/24/2021,AFETR,,3478422,205225304,0 QPS-SAR-2 IZANAMI,1 47485U 21006CA  22154.09038390  .00008025  00000-0  42140-3 0  9992,2 47485  97.4422 213.3824 0008103 340.5625 108.6694 15.15949013 75080,,,,,,,526.236,,7.602612615
2,GENERATED VIA SPACE-TRACK.ORG API,2022-06-03T02:31:39,18 SPCS,CELESTIS 17/SHERPA-FX1,2021-006CB,EARTH,TEME,UTC,SGP4,2022-06-02T14:31:02.434656,15.13154942,0.0009212,97.4384,212.1295,346.2025,13.8953,0,U,47486,999,7497,7.76E-05,1.31E-05,0,6904.723,95.165,532.948,520.227,PAYLOAD,MEDIUM,US,1/24/2021,AFETR,,3477983,205211531,0 CELESTIS 17/SHERPA-FX1,1 47486U 21006CB  22153.60488929  .00001313  00000-0  77629-4 0  9990,2 47486  97.4384 212.1295 0009212 346.2025  13.8953 15.13154942 74975,,,,,,,534.723,,7.59793877
2,GENERATED VIA SPACE-TRACK.ORG API,2022-06-02T17:55:29,18 SPCS,ASTROCAST-0103,2021-006CC,EARTH,TEME,UTC,SGP4,2022-06-02T10:45:34.931808,15.13602732,0.0009415,97.4483,212.4264,0.3545,359.7691,0,U,47487,999,7495,0.00013414,2.35E-05,0,6903.361,95.137,531.725,518.726,PAYLOAD,MEDIUM,SWTZ,1/24/2021,AFETR,,3477482,205176450,0 ASTROCAST-0103,1 47487U 21006CC  22153.44832097  .00002345  00000-0  13414-3 0  9999,2 47487  97.4483 212.4264 0009415   0.3545 359.7691 15.13602732 74959,,,,,,,533.361,,7.598688251
2,GENERATED VIA SPACE-TRACK.ORG API,2022-06-03T07:16:12,18 SPCS,ASTROCAST-0102,2021-006CD,EARTH,TEME,UTC,SGP4,2022-06-03T03:26:00.558528,15.13625911,0.0009191,97.4437,212.7879,339.2537,20.832,0,U,47488,999,7505,9.53E-05,1.65E-05,0,6903.29,95.136,531.5,518.811,PAYLOAD,MEDIUM,SWTZ,1/24/2021,AFETR,,3478493,205227287,0 ASTROCAST-0102,1 47488U 21006CD  22154.14306202  .00001648  00000-0  95290-4 0  9990,2 47488  97.4437 212.7879 0009191 339.2537  20.8320 15.13625911 75051,,,,,,,533.29,,7.598727327
2,GENERATED VIA SPACE-TRACK.ORG API,2022-06-03T06:26:12,18 SPCS,CAPELLA-3 (WHITNEY),2021-006CE,EARTH,TEME,UTC,SGP4,2022-06-03T03:21:49.572576,15.2293074,0.0005322,97.4477,215.0849,328.8475,31.2445,0,U,47489,999,7518,0.00075476,0.00017674,0,6875.143,94.555,500.667,493.349,PAYLOAD,LARGE,US,1/24/2021,AFETR,,3478033,205215970,0 CAPELLA-3 (WHITNEY),1 47489U 21006CE  22154.14015709  .00017674  00000-0  75476-3 0  9999,2 47489  97.4477 215.0849 0005322 328.8475  31.2445 15.22930740 75183,,,,,,,505.143,,7.614266125
2,GENERATED VIA SPACE-TRACK.ORG API,2022-06-02T17:55:29,18 SPCS,FLOCK 4S 39,2021-006CF,EARTH,TEME,UTC,SGP4,2022-06-02T12:40:37.559136,15.15879944,0.0008749,97.4478,213.2673,341.8893,18.2026,0,U,47490,999,7500,0.000262,4.95E-05,0,6896.445,94.994,524.344,512.277,PAYLOAD,SMALL,US,1/24/2021,AFETR,,3477482,205176700,0 FLOCK 4S 39,1 47490U 21006CF  22153.52821249  .00004953  00000-0  26200-3 0  9993,2 47490  97.4478 213.2673 0008749 341.8893  18.2026 15.15879944 75007,,,,,,,526.445,,7.602497414
2,GENERATED VIA SPACE-TRACK.ORG API,2022-06-02T17:55:29,18 SPCS,FLOCK 4S 4,2021-006CG,EARTH,TEME,UTC,SGP4,2022-06-02T09:25:05.912256,15.15893575,0.0008645,97.4362,212.3893,339.0913,20.9965,0,U,47491,999,7498,0.00023053,4.35E-05,0,6896.404,94.993,524.231,512.307,PAYLOAD,SMALL,US,1/24/2021,AFETR,,3477482,205176949,0 FLOCK 4S 4,1 47491U 21006CG  22153.39242954  .00004352  00000-0  23053-3 0  9995,2 47491  97.4362 212.3893 0008645 339.0913  20.9965 15.15893575 74985,,,,,,,526.404,,7.602520012
2,GENERATED VIA SPACE-TRACK.ORG API,2022-06-03T06:36:13,18 SPCS,FLOCK 4S 17,2021-006CH,EARTH,TEME,UTC,SGP4,2022-06-03T02:46:11.707392,15.15884946,0.0008583,97.4495,213.891,337.0561,23.0288,0,U,47492,999,7509,0.00016091,3.02E-05,0,6896.43,94.994,524.214,512.376,PAYLOAD,MEDIUM,US,1/24/2021,AFETR,,3478122,205217641,0 FLOCK 4S 17,1 47492U 21006CH  22154.11541328  .00003016  00000-0  16091-3 0  9994,2 47492  97.4495 213.8910 0008583 337.0561  23.0288 15.15884946 75094,,,,,,,526.43,,7.602505681
2,GENERATED VIA SPACE-TRACK.ORG API,2022-06-02T06:26:12,18 SPCS,LEMUR 2 MANGO1,2021-006CJ,EARTH,TEME,UTC,SGP4,2022-06-02T03:02:49.836480,15.16209525,0.0008651,97.4401,212.4557,342.2185,17.8744,0,U,47493,999,7495,0.00027441,5.24E-05,0,6895.446,94.974,523.276,511.346,PAYLOAD,SMALL,US,1/24/2021,AFETR,,3476325,205128756,0 LEMUR 2 MANGO1,1 47493U 21006CJ  22153.12696570  .00005240  00000-0  27441-3 0  9997,2 47493  97.4401 212.4557 0008651 342.2185  17.8744 15.16209525 74957,,,,,,,525.446,,7.603048112
2,GENERATED VIA SPACE-TRACK.ORG API,2022-06-03T02:31:39,18 SPCS,FLOCK 4S 3,2021-006CK,EARTH,TEME,UTC,SGP4,2022-06-02T14:54:38.446848,15.14574498,0.0008994,97.4376,212.4579,336.5319,23.5501,0,U,47494,999,7500,0.0001608,2.90E-05,0,6900.408,95.076,528.479,516.066,PAYLOAD,SMALL,US,1/24/2021,AFETR,,3477983,205211532,0 FLOCK 4S 3,1 47494U 21006CK  22153.62127832  .00002903  00000-0  16080-3 0  9993,2 47494  97.4376 212.4579 0008994 336.5319  23.5501 15.14574498 75002,,,,,,,530.408,,7.60031399
2,GENERATED VIA SPACE-TRACK.ORG API,2022-06-02T06:26:12,18 SPCS,FLOCK 4S 27,2021-006CL,EARTH,TEME,UTC,SGP4,2022-06-02T02:55:16.877568,15.15876935,0.0009145,97.4373,212.1882,340.2494,19.8383,0,U,47495,999,7494,0.00020816,3.92E-05,0,6896.455,94.995,524.626,512.013,PAYLOAD,SMALL,US,1/24/2021,AFETR,,3476351,205128798,0 FLOCK 4S 27,1 47495U 21006CL  22153.12172312  .00003921  00000-0  20816-3 0  9995,2 47495  97.4373 212.1882 0009145 340.2494  19.8383 15.15876935 74949,,,,,,,526.455,,7.602491902
2,GENERATED VIA SPACE-TRACK.ORG API,2022-06-03T02:31:39,18 SPCS,FLOCK 4S 18,2021-006CM,EARTH,TEME,UTC,SGP4,2022-06-02T15:33:01.190016,15.15858397,0.0008859,97.4479,213.3738,338.7227,21.3637,0,U,47496,999,7502,0.00015493,2.90E-05,0,6896.511,94.996,524.485,512.266,PAYLOAD,MEDIUM,US,1/24/2021,AFETR,,3477983,205211031,0 FLOCK 4S 18,1 47496U 21006CM  22153.64793044  .00002900  00000-0  15493-3 0  9995,2 47496  97.4479 213.3738 0008859 338.7227  21.3637 15.15858397 75029,,,,,,,526.511,,7.602461035
2,GENERATED VIA SPACE-TRACK.ORG API,2022-06-03T06:36:13,18 SPCS,FLOCK 4S 26,2021-006CN,EARTH,TEME,UTC,SGP4,2022-06-03T03:07:28.793568,15.18407614,0.0007656,97.4363,213.4465,329.6928,30.3863,0,U,47497,999,7511,0.00044596,9.12E-05,0,6888.79,94.836,515.929,505.381,PAYLOAD,SMALL,US,1/24/2021,AFETR,,3478164,205218627,0 FLOCK 4S 26,1 47497U 21006CN  22154.13019437  .00009117  00000-0  44596-3 0  9991,2 47497  97.4363 213.4465 0007656 329.6928  30.3863 15.18407614 75117,,,,,,,518.79,,7.606720286
2,GENERATED VIA SPACE-TRACK.ORG API,2022-06-03T06:26:12,18 SPCS,FLOCK 4S 2,2021-006CP,EARTH,TEME,UTC,SGP4,2022-06-03T04:04:50.097792,15.15829553,0.0008492,97.4378,213.2682,332.6661,27.4124,0,U,47498,999,7510,0.00036692,6.96E-05,0,6896.598,94.997,524.32,512.607,PAYLOAD,SMALL,US,1/24/2021,AFETR,,3478040,205215597,0 FLOCK 4S 2,1 47498U 21006CP  22154.17002428  .00006955  00000-0  36692-3 0  9993,2 47498  97.4378 213.2682 0008492 332.6661  27.4124 15.15829553 75103,,,,,,,526.598,,7.602413083
2,GENERATED VIA SPACE-TRACK.ORG API,2022-06-02T17:55:29,18 SPCS,FLOCK 4S 40,2021-006CQ,EARTH,TEME,UTC,SGP4,2022-06-02T09:15:56.600928,15.15842974,0.0009156,97.4478,213.0986,338.6005,21.4844,0,U,47499,999,7498,0.00029938,5.66E-05,0,6896.558,94.997,524.737,512.108,PAYLOAD,MEDIUM,US,1/24/2021,AFETR,,3477482,205176950,0 FLOCK 4S 40,1 47499U 21006CQ  22153.38607177  .00005664  00000-0  29938-3 0  9999,2 47499  97.4478 213.0986 0009156 338.6005  21.4844 15.15842974 74986,,,,,,,526.558,,7.60243513
2,GENERATED VIA SPACE-TRACK.ORG API,2022-06-03T02:31:39,18 SPCS,FLOCK 4S 19,2021-006CR,EARTH,TEME,UTC,SGP4,2022-06-02T15:16:04.274976,15.15927713,0.0009242,97.4472,213.371,334.921,25.1573,0,U,47500,999,7502,0.00020105,3.79E-05,0,6896.301,94.991,524.539,511.792,PAYLOAD,MEDIUM,US,1/24/2021,AFETR,,3477983,205210531,0 FLOCK 4S 19,1 47500U 21006CR  22153.63616059  .00003791  00000-0  20105-3 0  9995,2 47500  97.4472 213.3710 0009242 334.9210  25.1573 15.15927713 75025,,,,,,,526.301,,7.602576786
2,GENERATED VIA SPACE-TRACK.ORG API,2022-06-02T17:55:29,18 SPCS,KEPLER-10 (BABY YODA),2021-006CS,EARTH,TEME,UTC,SGP4,2022-06-02T09:18:50.104224,15.16118032,0.0008871,97.4479,213.2997,334.9859,25.0943,0,U,47501,999,7499,0.00025483,4.85E-05,0,6895.723,94.979,523.706,511.471,PAYLOAD,MEDIUM,CA,1/24/2021,AFETR,,3477482,205175950,0 KEPLER-10 (BABY YODA),1 47501U 21006CS  22153.38807991  .00004849  00000-0  25483-3 0  9994,2 47501  97.4479 213.2997 0008871 334.9859  25.0943 15.16118032 74997,,,,,,,525.723,,7.602895404
